SWARM A                 
1 39452U 13067B   26156.60483156  .00011487  00000+0  19926-3 0  9993
2 39452  87.3329  60.5431 0003023  91.4408 268.7199 15.50713053704452
SWARM C                 
1 39453U 13067C   26156.60472236  .00011384  00000+0  19745-3 0  9996
2 39453  87.3328  59.1244 0003003  91.6948 268.4657 15.50715053704411
BRITE-CA1 (TORONTO)     
1 40020U 14033L   26156.62307795  .00000768  00000+0  12310-3 0  9996
2 40020  97.9727 285.7652 0077589 314.6583  44.8317 14.72660581640513
OCO 2                   
1 40059U 14035A   26156.68762840  .00000474  00000+0  11518-3 0  9995
2 40059  98.2014  98.1561 0001472  87.5771 272.5596 14.57101547634377
BRITE-PL2 (HEWELIUSZ)   
1 40119U 14049B   26156.59000163  .00002921  00000+0  27519-3 0  9997
2 40119  97.9087 268.5018 0015021 143.5558 216.6687 14.94550332639715
MMS 1                   
1 40482U 15011A   26156.75003471 -.00000308  00000+0  00000+0 0  9993
2 40482  72.1116 348.9058 8341664 167.0767 212.1791  0.28359485  1379
MMS 2                   
1 40483U 15011B   26156.75003471 -.00000308  00000+0  00000+0 0  9994
2 40483  72.1118 348.9080 8342441 167.0824 212.1674  0.28359506  1379
MMS 3                   
1 40484U 15011C   26156.75003471 -.00000308  00000+0  00000+0 0  9995
2 40484  72.1148 348.9126 8341635 167.0768 212.1641  0.28359467  1375
MMS 4                   
1 40485U 15011D   26156.75003471 -.00000308  00000+0  00000+0 0  9996
2 40485  72.1111 348.9083 8341231 167.0846 212.1525  0.28359458  1378
ASTROSAT                
1 40930U 15052A   26156.58762902  .00001764  00000+0  13290-3 0  9993
2 40930   5.9958 238.8578 0008441 232.9334 127.0021 14.82487709578102
DAMPE                   
1 41173U 15078A   26156.72889127  .00001671  00000+0  58704-4 0  9993
2 41173  97.4559 162.1399 0013558 112.5492 247.7185 15.30755798582799
PISAT                   
1 41784U 16059B   26156.29181750  .00000975  00000+0  17358-3 0  9995
2 41784  97.8178 157.2560 0027624 242.2192 117.6213 14.68961871517998
HXMT (HUIYAN)           
1 42758U 17034A   26156.68856369  .00005320  00000+0  26260-3 0  9990
2 42758  43.0134 247.0661 0030190  71.1128 289.2990 15.18388254495914
FLYING LAPTOP           
1 42831U 17042G   26156.72011398  .00002971  00000+0  23599-3 0  9992
2 42831  97.4644 312.6984 0018889 159.2943 200.9051 15.01066979484731
ZHANGHENG 1-01 (CSES-1) 
1 43194U 18015C   26156.75572385  .00007508  00000+0  34387-3 0  9995
2 43194  97.6867 322.1882 0017292 309.2840  50.6861 15.20659683462901
SALSAT                  
1 46495U 20068K   26155.97862976  .00008911  00000+0  31300-3 0  9995
2 46495  97.8851 158.3021 0009245 356.4519   3.6652 15.29615280313492
IXPE                    
1 49954U 21121A   26156.75003471  .00011607  00000+0  63484-3 0  9997
2 49954   0.2305  43.7815 0007052 268.7874 332.6191 15.10144239  5805
SMILE                   
1 69123U 26109A   26144.65318427 -.00001976  00000+0 -42379-3 0  9994
2 69123  70.0007 229.2745 0009123 259.5159 100.4951 14.57062785   802
