OBJECT_NAME,OBJECT_ID,EPOCH,MEAN_MOTION,ECCENTRICITY,INCLINATION,RA_OF_ASC_NODE,ARG_OF_PERICENTER,MEAN_ANOMALY,EPHEMERIS_TYPE,CLASSIFICATION_TYPE,NORAD_CAT_ID,ELEMENT_SET_NO,REV_AT_EPOCH,BSTAR,MEAN_MOTION_DOT,MEAN_MOTION_DDOT
SWARM A,2013-067B,2026-06-05T14:30:57.446784,15.50713053,.0003023,87.3329,60.5431,91.4408,268.7199,0,U,39452,999,70445,.19926E-3,.11487E-3,0
SWARM C,2013-067C,2026-06-05T14:30:48.011904,15.50715053,.0003003,87.3328,59.1244,91.6948,268.4657,0,U,39453,999,70441,.19745E-3,.11384E-3,0
BRITE-CA1 (TORONTO),2014-033L,2026-06-05T14:57:13.934880,14.72660581,.0077589,97.9727,285.7652,314.6583,44.8317,0,U,40020,999,64051,.1231E-3,.768E-5,0
OCO 2,2014-035A,2026-06-05T16:30:11.093760,14.57101547,.0001472,98.2014,98.1561,87.5771,272.5596,0,U,40059,999,63437,.11518E-3,.474E-5,0
BRITE-PL2 (HEWELIUSZ),2014-049B,2026-06-05T14:09:36.140832,14.94550332,.0015021,97.9087,268.5018,143.5558,216.6687,0,U,40119,999,63971,.27519E-3,.2921E-4,0
MMS 1,2015-011A,2026-06-05T18:00:02.998944,0.28359485,.8341664,72.1116,348.9058,167.0767,212.1791,0,U,40482,999,137,0,-.308E-5,0
MMS 2,2015-011B,2026-06-05T18:00:02.998944,0.28359506,.8342441,72.1118,348.9080,167.0824,212.1674,0,U,40483,999,137,0,-.308E-5,0
MMS 3,2015-011C,2026-06-05T18:00:02.998944,0.28359467,.8341635,72.1148,348.9126,167.0768,212.1641,0,U,40484,999,137,0,-.308E-5,0
MMS 4,2015-011D,2026-06-05T18:00:02.998944,0.28359458,.8341231,72.1111,348.9083,167.0846,212.1525,0,U,40485,999,137,0,-.308E-5,0
ASTROSAT,2015-052A,2026-06-05T14:06:11.147328,14.82487709,.0008441,5.9958,238.8578,232.9334,127.0021,0,U,40930,999,57810,.1329E-3,.1764E-4,0
DAMPE,2015-078A,2026-06-05T17:29:36.205728,15.30755798,.0013558,97.4559,162.1399,112.5492,247.7185,0,U,41173,999,58279,.58704E-4,.1671E-4,0
PISAT,2016-059B,2026-06-05T07:00:13.032000,14.68961871,.0027624,97.8178,157.2560,242.2192,117.6213,0,U,41784,999,51799,.17358E-3,.975E-5,0
HXMT (HUIYAN),2017-034A,2026-06-05T16:31:31.902816,15.18388254,.003019,43.0134,247.0661,71.1128,289.2990,0,U,42758,999,49591,.2626E-3,.532E-4,0
FLYING LAPTOP,2017-042G,2026-06-05T17:16:57.847872,15.01066979,.0018889,97.4644,312.6984,159.2943,200.9051,0,U,42831,999,48473,.23599E-3,.2971E-4,0
ZHANGHENG 1-01 (CSES-1),2018-015C,2026-06-05T18:08:14.540640,15.20659683,.0017292,97.6867,322.1882,309.2840,50.6861,0,U,43194,999,46290,.34387E-3,.7508E-4,0
SALSAT,2020-068K,2026-06-04T23:29:13.611264,15.29615280,.0009245,97.8851,158.3021,356.4519,3.6652,0,U,46495,999,31349,.3129959E-3,.8911E-4,0
IXPE,2021-121A,2026-06-05T18:00:02.998944,15.10144239,.0007052,0.2305,43.7815,268.7874,332.6191,0,U,49954,999,580,.63484E-3,.11607E-3,0
SMILE,2026-109A,2026-05-24T15:40:35.120928,14.57062785,.00091232,70.0007,229.2745,259.5159,100.4951,0,U,69123,999,80,-.42378883E-3,-.1976E-4,0
